start=new Date('2022-07-02T00:00:00.000Z').valueOf();
sats=[{"OBJECT_TYPE":"PAYLOAD","ELEMENT_SET_NO":"999","MEAN_ANOMALY":"8.0178","OBJECT_ID":"2022-052S","SEMIMAJOR_AXIS":"6727.849","ECCENTRICITY":"0.00028490","EPOCH":"2022-07-01T14:00:01.000224","TLE_LINE1":"1 52614U 22052S   22182.58334491 -.00796080  00000-0 -62182-2 0  9994","TIME_SYSTEM":"UTC","MEAN_ELEMENT_THEORY":"SGP4","MEAN_MOTION":"15.73216307","FILE":"3506285","MEAN_MOTION_DOT":"-0.00796080","DECAY_DATE":null,"CENTER_NAME":"EARTH","APOAPSIS":"351.630","REF_FRAME":"TEME","GP_ID":"207212613","LAUNCH_DATE":"2022-05-14","PERIAPSIS":"347.797","TLE_LINE2":"2 52614  53.2162 203.3181 0002849  12.0712   8.0178 15.73216307  1306","COUNTRY_CODE":"US","MEAN_MOTION_DDOT":"0.0000000000000","RA_OF_ASC_NODE":"203.3181","INCLINATION":"53.2162","ARG_OF_PERICENTER":"12.0712","EPHEMERIS_TYPE":"0","PERIOD":"91.532","NORAD_CAT_ID":"52614","BSTAR":"-0.00621820000000","REV_AT_EPOCH":"130","OBJECT_NAME":"STARLINK-3982","SITE":"AFETR","RCS_SIZE":"LARGE","CLASSIFICATION_TYPE":"U"},{"MEAN_MOTION":"15.09326473","FILE":"3506285","TLE_LINE1":"1 52615U 22052T   22182.58334491 -.00525014  00000-0 -34612-1 0  9998","TIME_SYSTEM":"UTC","MEAN_ELEMENT_THEORY":"SGP4","MEAN_ANOMALY":"104.3820","ELEMENT_SET_NO":"999","SEMIMAJOR_AXIS":"6916.394","ECCENTRICITY":"0.00014930","OBJECT_ID":"2022-052T","EPOCH":"2022-07-01T14:00:01.000224","OBJECT_TYPE":"PAYLOAD","NORAD_CAT_ID":"52615","PERIOD":"95.407","EPHEMERIS_TYPE":"0","REV_AT_EPOCH":"130","BSTAR":"-0.03461200000000","CLASSIFICATION_TYPE":"U","SITE":"AFETR","RCS_SIZE":"LARGE","OBJECT_NAME":"STARLINK-4011","ARG_OF_PERICENTER":"69.8066","PERIAPSIS":"537.226","LAUNCH_DATE":"2022-05-14","COUNTRY_CODE":"US","TLE_LINE2":"2 52615  53.2172 211.5111 0001493  69.8066 104.3820 15.09326473  1307","INCLINATION":"53.2172","RA_OF_ASC_NODE":"211.5111","MEAN_MOTION_DDOT":"0.0000000000000","MEAN_MOTION_DOT":"-0.00525014","REF_FRAME":"TEME","APOAPSIS":"539.291","CENTER_NAME":"EARTH","DECAY_DATE":null,"GP_ID":"207212059"},{"GP_ID":"207212715","CENTER_NAME":"EARTH","DECAY_DATE":null,"REF_FRAME":"TEME","APOAPSIS":"351.668","MEAN_MOTION_DOT":"-0.00755350","RA_OF_ASC_NODE":"203.3165","MEAN_MOTION_DDOT":"0.0000000000000","INCLINATION":"53.2162","TLE_LINE2":"2 52616  53.2162 203.3165 0002828  15.8333   5.4606 15.73198073  1303","COUNTRY_CODE":"US","LAUNCH_DATE":"2022-05-14","PERIAPSIS":"347.863","ARG_OF_PERICENTER":"15.8333","OBJECT_NAME":"STARLINK-4015","SITE":"AFETR","RCS_SIZE":"LARGE","CLASSIFICATION_TYPE":"U","BSTAR":"-0.00587590000000","REV_AT_EPOCH":"130","EPHEMERIS_TYPE":"0","NORAD_CAT_ID":"52616","PERIOD":"91.533","OBJECT_TYPE":"PAYLOAD","EPOCH":"2022-07-01T14:00:01.000224","OBJECT_ID":"2022-052U","ECCENTRICITY":"0.00028280","SEMIMAJOR_AXIS":"6727.901","ELEMENT_SET_NO":"999","MEAN_ANOMALY":"5.4606","MEAN_ELEMENT_THEORY":"SGP4","TIME_SYSTEM":"UTC","TLE_LINE1":"1 52616U 22052U   22182.58334491 -.00755350  00000-0 -58759-2 0  9996","FILE":"3506285","MEAN_MOTION":"15.73198073"},{"OBJECT_ID":"2022-052V","SEMIMAJOR_AXIS":"6728.086","ECCENTRICITY":"0.00036200","EPOCH":"2022-07-01T14:00:01.000224","ELEMENT_SET_NO":"999","MEAN_ANOMALY":"15.2785","OBJECT_TYPE":"PAYLOAD","FILE":"3506285","MEAN_MOTION":"15.73133081","MEAN_ELEMENT_THEORY":"SGP4","TLE_LINE1":"1 52617U 22052V   22182.58334491 -.00677348  00000-0 -52330-2 0  9996","TIME_SYSTEM":"UTC","RA_OF_ASC_NODE":"203.3105","MEAN_MOTION_DDOT":"0.0000000000000","INCLINATION":"53.2162","LAUNCH_DATE":"2022-05-14","PERIAPSIS":"347.515","COUNTRY_CODE":"US","TLE_LINE2":"2 52617  53.2162 203.3105 0003620   9.0310  15.2785 15.73133081  1304","DECAY_DATE":null,"CENTER_NAME":"EARTH","APOAPSIS":"352.387","REF_FRAME":"TEME","GP_ID":"207212512","MEAN_MOTION_DOT":"-0.00677348","RCS_SIZE":"LARGE","SITE":"AFETR","OBJECT_NAME":"STARLINK-3996","CLASSIFICATION_TYPE":"U","EPHEMERIS_TYPE":"0","PERIOD":"91.537","NORAD_CAT_ID":"52617","REV_AT_EPOCH":"130","BSTAR":"-0.00523300000000","ARG_OF_PERICENTER":"9.0310"},{"TLE_LINE1":"1 52618U 22052W   22182.58334491 -.00905054  00000-0 -71314-2 0  9998","TIME_SYSTEM":"UTC","MEAN_ELEMENT_THEORY":"SGP4","MEAN_MOTION":"15.73322384","FILE":"3506285","OBJECT_TYPE":"PAYLOAD","MEAN_ANOMALY":"6.7242","ELEMENT_SET_NO":"999","SEMIMAJOR_AXIS":"6727.546","ECCENTRICITY":"0.00027020","OBJECT_ID":"2022-052W","EPOCH":"2022-07-01T14:00:01.000224","ARG_OF_PERICENTER":"15.1003","PERIOD":"91.526","NORAD_CAT_ID":"52618","EPHEMERIS_TYPE":"0","BSTAR":"-0.00713140000000","REV_AT_EPOCH":"130","CLASSIFICATION_TYPE":"U","SITE":"AFETR","RCS_SIZE":"LARGE","OBJECT_NAME":"STARLINK-3983","MEAN_MOTION_DOT":"-0.00905054","REF_FRAME":"TEME","APOAPSIS":"351.229","CENTER_NAME":"EARTH","DECAY_DATE":null,"GP_ID":"207212262","PERIAPSIS":"347.593","LAUNCH_DATE":"2022-05-14","COUNTRY_CODE":"US","TLE_LINE2":"2 52618  53.2162 203.3156 0002702  15.1003   6.7242 15.73322384  1307","INCLINATION":"53.2162","MEAN_MOTION_DDOT":"0.0000000000000","RA_OF_ASC_NODE":"203.3156"},{"ARG_OF_PERICENTER":"13.3450","CLASSIFICATION_TYPE":"U","SITE":"AFETR","OBJECT_NAME":"STARLINK-3741","RCS_SIZE":"LARGE","REV_AT_EPOCH":"130","BSTAR":"-0.00663130000000","NORAD_CAT_ID":"52619","PERIOD":"91.529","EPHEMERIS_TYPE":"0","GP_ID":"207212412","REF_FRAME":"TEME","APOAPSIS":"351.571","DECAY_DATE":null,"CENTER_NAME":"EARTH","MEAN_MOTION_DOT":"-0.00845911","INCLINATION":"53.2162","MEAN_MOTION_DDOT":"0.0000000000000","RA_OF_ASC_NODE":"203.3096","TLE_LINE2":"2 52619  53.2162 203.3096 0002992  13.3450  11.4875 15.73270753  1305","COUNTRY_CODE":"US","PERIAPSIS":"347.546","LAUNCH_DATE":"2022-05-14","MEAN_ELEMENT_THEORY":"SGP4","TIME_SYSTEM":"UTC","TLE_LINE1":"1 52619U 22052X   22182.58334491 -.00845911  00000-0 -66313-2 0  9997","FILE":"3506285","MEAN_MOTION":"15.73270753","OBJECT_TYPE":"PAYLOAD","EPOCH":"2022-07-01T14:00:01.000224","SEMIMAJOR_AXIS":"6727.693","ECCENTRICITY":"0.00029920","OBJECT_ID":"2022-052X","MEAN_ANOMALY":"11.4875","ELEMENT_SET_NO":"999"},{"EPOCH":"2022-07-01T20:00:01.000224","OBJECT_ID":"2022-052Y","SEMIMAJOR_AXIS":"6916.997","ECCENTRICITY":"0.00015080","ELEMENT_SET_NO":"999","MEAN_ANOMALY":"49.0990","OBJECT_TYPE":"PAYLOAD","FILE":"3506305","MEAN_MOTION":"15.09129216","MEAN_ELEMENT_THEORY":"SGP4","TIME_SYSTEM":"UTC","TLE_LINE1":"1 52620U 22052Y   22182.83334491 -.00373446  00000-0 -24502-1 0  9999","RA_OF_ASC_NODE":"210.3868","MEAN_MOTION_DDOT":"0.0000000000000","INCLINATION":"53.2175","TLE_LINE2":"2 52620  53.2175 210.3868 0001508  63.9832  49.0990 15.09129216  7827","COUNTRY_CODE":"US","LAUNCH_DATE":"2022-05-14","PERIAPSIS":"537.818","GP_ID":"207213132","DECAY_DATE":null,"CENTER_NAME":"EARTH","APOAPSIS":"539.905","REF_FRAME":"TEME","MEAN_MOTION_DOT":"-0.00373446","OBJECT_NAME":"STARLINK-3975","SITE":"AFETR","RCS_SIZE":"LARGE","CLASSIFICATION_TYPE":"U","REV_AT_EPOCH":"782","BSTAR":"-0.02450200000000","EPHEMERIS_TYPE":"0","PERIOD":"95.419","NORAD_CAT_ID":"52620","ARG_OF_PERICENTER":"63.9832"},{"TIME_SYSTEM":"UTC","TLE_LINE1":"1 52621U 22052Z   22182.83334491 -.01053976  00000-0 -84587-2 0  9994","MEAN_ELEMENT_THEORY":"SGP4","MEAN_MOTION":"15.72873263","FILE":"3506305","OBJECT_TYPE":"PAYLOAD","MEAN_ANOMALY":"351.9456","ELEMENT_SET_NO":"999","EPOCH":"2022-07-01T20:00:01.000224","ECCENTRICITY":"0.00025310","SEMIMAJOR_AXIS":"6728.827","OBJECT_ID":"2022-052Z","ARG_OF_PERICENTER":"11.2405","BSTAR":"-0.00845870000000","REV_AT_EPOCH":"793","PERIOD":"91.552","NORAD_CAT_ID":"52621","EPHEMERIS_TYPE":"0","CLASSIFICATION_TYPE":"U","RCS_SIZE":"LARGE","SITE":"AFETR","OBJECT_NAME":"STARLINK-3984","MEAN_MOTION_DOT":"-0.01053976","GP_ID":"207212879","APOAPSIS":"352.395","REF_FRAME":"TEME","DECAY_DATE":null,"CENTER_NAME":"EARTH","COUNTRY_CODE":"US","TLE_LINE2":"2 52621  53.2174 202.0669 0002531  11.2405 351.9456 15.72873263  7935","PERIAPSIS":"348.989","LAUNCH_DATE":"2022-05-14","INCLINATION":"53.2174","MEAN_MOTION_DDOT":"0.0000000000000","RA_OF_ASC_NODE":"202.0669"},{"PERIOD":"95.262","NORAD_CAT_ID":"52622","EPHEMERIS_TYPE":"0","REV_AT_EPOCH":"783","BSTAR":"-0.05292700000000","CLASSIFICATION_TYPE":"U","OBJECT_NAME":"STARLINK-4008","SITE":"AFETR","RCS_SIZE":"LARGE","ARG_OF_PERICENTER":"62.2532","PERIAPSIS":"530.306","LAUNCH_DATE":"2022-05-14","COUNTRY_CODE":"US","TLE_LINE2":"2 52622  53.2176 210.3917 0001383  62.2532 243.1898 15.11619945  7836","INCLINATION":"53.2176","RA_OF_ASC_NODE":"210.3917","MEAN_MOTION_DDOT":"0.0000000000000","MEAN_MOTION_DOT":"-0.00846789","REF_FRAME":"TEME","APOAPSIS":"532.217","DECAY_DATE":null,"CENTER_NAME":"EARTH","GP_ID":"207212895","MEAN_MOTION":"15.11619945","FILE":"3506306","TLE_LINE1":"1 52622U 22052AA  22182.83334491 -.00846789  00000-0 -52927-1 0  9998","TIME_SYSTEM":"UTC","MEAN_ELEMENT_THEORY":"SGP4","MEAN_ANOMALY":"243.1898","ELEMENT_SET_NO":"999","SEMIMAJOR_AXIS":"6909.396","ECCENTRICITY":"0.00013830","OBJECT_ID":"2022-052AA","EPOCH":"2022-07-01T20:00:01.000224","OBJECT_TYPE":"PAYLOAD"},{"FILE":"3506306","MEAN_MOTION":"15.72875793","MEAN_ELEMENT_THEORY":"SGP4","TLE_LINE1":"1 52623U 22052AB  22182.83334491 -.01055721  00000-0 -84724-2 0  9999","TIME_SYSTEM":"UTC","OBJECT_ID":"2022-052AB","SEMIMAJOR_AXIS":"6728.820","ECCENTRICITY":"0.00027560","EPOCH":"2022-07-01T20:00:01.000224","ELEMENT_SET_NO":"999","MEAN_ANOMALY":"356.0923","OBJECT_TYPE":"PAYLOAD","RCS_SIZE":"LARGE","SITE":"AFETR","OBJECT_NAME":"STARLINK-3986","CLASSIFICATION_TYPE":"U","EPHEMERIS_TYPE":"0","PERIOD":"91.552","NORAD_CAT_ID":"52623","REV_AT_EPOCH":"793","BSTAR":"-0.00847240000000","ARG_OF_PERICENTER":"8.2853","MEAN_MOTION_DDOT":"0.0000000000000","RA_OF_ASC_NODE":"202.0652","INCLINATION":"53.2174","LAUNCH_DATE":"2022-05-14","PERIAPSIS":"348.830","COUNTRY_CODE":"US","TLE_LINE2":"2 52623  53.2174 202.0652 0002756   8.2853 356.0923 15.72875793  7936","DECAY_DATE":null,"CENTER_NAME":"EARTH","REF_FRAME":"TEME","APOAPSIS":"352.539","GP_ID":"207212889","MEAN_MOTION_DOT":"-0.01055721"}];
